[
    {
        "CCSDS_OMM_VERS": "3.0",
        "COMMENT": "GENERATED VIA SPACE-TRACK.ORG API",
        "CREATION_DATE": "2024-08-10T22:56:16",
        "ORIGINATOR": "18 SPCS",
        "OBJECT_NAME": "STARLINK-4210",
        "OBJECT_ID": "2022-062AW",
        "CENTER_NAME": "EARTH",
        "REF_FRAME": "TEME",
        "TIME_SYSTEM": "UTC",
        "MEAN_ELEMENT_THEORY": "SGP4",
        "EPOCH": "2024-08-10T21:00:42.175296",
        "MEAN_MOTION": "15.08905056",
        "ECCENTRICITY": "0.00015440",
        "INCLINATION": "53.2172",
        "RA_OF_ASC_NODE": "79.0527",
        "ARG_OF_PERICENTER": "91.0070",
        "MEAN_ANOMALY": "269.1099",
        "EPHEMERIS_TYPE": "0",
        "CLASSIFICATION_TYPE": "U",
        "NORAD_CAT_ID": "52874",
        "ELEMENT_SET_NO": "999",
        "REV_AT_EPOCH": "11962",
        "BSTAR": "0.00194900000000",
        "MEAN_MOTION_DOT": "0.00030922",
        "MEAN_MOTION_DDOT": "0.0000000000000",
        "SEMIMAJOR_AXIS": "6917.682",
        "PERIOD": "95.433",
        "APOAPSIS": "540.615",
        "PERIAPSIS": "538.478",
        "OBJECT_TYPE": "PAYLOAD",
        "RCS_SIZE": "LARGE",
        "COUNTRY_CODE": "US",
        "LAUNCH_DATE": "2022-06-17",
        "SITE": "AFETR",
        "DECAY_DATE": null,
        "FILE": "4427654",
        "GP_ID": "264740944",
        "TLE_LINE0": "0 STARLINK-4210",
        "TLE_LINE1": "1 52874U 22062AW  24223.87548814  .00030922  00000-0  19490-2 0  9997",
        "TLE_LINE2": "2 52874  53.2172  79.0527 0001544  91.0070 269.1099 15.08905056119623"
    },
    {
        "CCSDS_OMM_VERS": "3.0",
        "COMMENT": "GENERATED VIA SPACE-TRACK.ORG API",
        "CREATION_DATE": "2024-08-10T22:16:16",
        "ORIGINATOR": "18 SPCS",
        "OBJECT_NAME": "THOR ABLESTAR DEB",
        "OBJECT_ID": "1961-015EC",
        "CENTER_NAME": "EARTH",
        "REF_FRAME": "TEME",
        "TIME_SYSTEM": "UTC",
        "MEAN_ELEMENT_THEORY": "SGP4",
        "EPOCH": "2024-08-10T21:00:37.793952",
        "MEAN_MOTION": "13.81025282",
        "ECCENTRICITY": "0.00278810",
        "INCLINATION": "66.8411",
        "RA_OF_ASC_NODE": "105.6326",
        "ARG_OF_PERICENTER": "282.3245",
        "MEAN_ANOMALY": "161.7761",
        "EPHEMERIS_TYPE": "0",
        "CLASSIFICATION_TYPE": "U",
        "NORAD_CAT_ID": "403",
        "ELEMENT_SET_NO": "999",
        "REV_AT_EPOCH": "17841",
        "BSTAR": "0.00023758000000",
        "MEAN_MOTION_DOT": "0.00000177",
        "MEAN_MOTION_DDOT": "0.0000000000000",
        "SEMIMAJOR_AXIS": "7338.389",
        "PERIOD": "104.270",
        "APOAPSIS": "980.715",
        "PERIAPSIS": "939.794",
        "OBJECT_TYPE": "DEBRIS",
        "RCS_SIZE": "SMALL",
        "COUNTRY_CODE": "US",
        "LAUNCH_DATE": "1961-06-29",
        "SITE": "AFETR",
        "DECAY_DATE": null,
        "FILE": "4427117",
        "GP_ID": "264728302",
        "TLE_LINE0": "0 THOR ABLESTAR DEB",
        "TLE_LINE1": "1   403U 61015EC  24223.87543743  .00000177  00000-0  23758-3 0  9997",
        "TLE_LINE2": "2   403  66.8411 105.6326 0027881 282.3245 161.7761 13.81025282178412"
    },
    {
        "CCSDS_OMM_VERS": "3.0",
        "COMMENT": "GENERATED VIA SPACE-TRACK.ORG API",
        "CREATION_DATE": "2024-08-10T22:36:16",
        "ORIGINATOR": "18 SPCS",
        "OBJECT_NAME": "OBJECT D",
        "OBJECT_ID": "2024-085D",
        "CENTER_NAME": "EARTH",
        "REF_FRAME": "TEME",
        "TIME_SYSTEM": "UTC",
        "MEAN_ELEMENT_THEORY": "SGP4",
        "EPOCH": "2024-08-10T21:00:35.903520",
        "MEAN_MOTION": "15.20412516",
        "ECCENTRICITY": "0.00104210",
        "INCLINATION": "97.4003",
        "RA_OF_ASC_NODE": "297.1630",
        "ARG_OF_PERICENTER": "243.2327",
        "MEAN_ANOMALY": "116.7843",
        "EPHEMERIS_TYPE": "0",
        "CLASSIFICATION_TYPE": "U",
        "NORAD_CAT_ID": "59680",
        "ELEMENT_SET_NO": "999",
        "REV_AT_EPOCH": "1455",
        "BSTAR": "0.00103190000000",
        "MEAN_MOTION_DOT": "0.00022507",
        "MEAN_MOTION_DDOT": "0.0000000000000",
        "SEMIMAJOR_AXIS": "6882.732",
        "PERIOD": "94.711",
        "APOAPSIS": "511.770",
        "PERIAPSIS": "497.425",
        "OBJECT_TYPE": "UNKNOWN",
        "RCS_SIZE": "LARGE",
        "COUNTRY_CODE": "PRC",
        "LAUNCH_DATE": "2024-05-07",
        "SITE": "TSC",
        "DECAY_DATE": null,
        "FILE": "4427323",
        "GP_ID": "264733986",
        "TLE_LINE0": "0 OBJECT D",
        "TLE_LINE1": "1 59680U 24085D   24223.87541555  .00022507  00000-0  10319-2 0  9992",
        "TLE_LINE2": "2 59680  97.4003 297.1630 0010421 243.2327 116.7843 15.20412516 14554"
    },
    {
        "CCSDS_OMM_VERS": "3.0",
        "COMMENT": "GENERATED VIA SPACE-TRACK.ORG API",
        "CREATION_DATE": "2024-08-10T22:56:16",
        "ORIGINATOR": "18 SPCS",
        "OBJECT_NAME": "GAOFEN 12 (03)",
        "OBJECT_ID": "2022-069A",
        "CENTER_NAME": "EARTH",
        "REF_FRAME": "TEME",
        "TIME_SYSTEM": "UTC",
        "MEAN_ELEMENT_THEORY": "SGP4",
        "EPOCH": "2024-08-10T21:00:29.297376",
        "MEAN_MOTION": "14.80259501",
        "ECCENTRICITY": "0.00090180",
        "INCLINATION": "97.9034",
        "RA_OF_ASC_NODE": "114.1658",
        "ARG_OF_PERICENTER": "358.9023",
        "MEAN_ANOMALY": "1.2168",
        "EPHEMERIS_TYPE": "0",
        "CLASSIFICATION_TYPE": "U",
        "NORAD_CAT_ID": "52912",
        "ELEMENT_SET_NO": "999",
        "REV_AT_EPOCH": "11470",
        "BSTAR": "0.00067683000000",
        "MEAN_MOTION_DOT": "0.00005105",
        "MEAN_MOTION_DDOT": "0.0000000000000",
        "SEMIMAJOR_AXIS": "7006.642",
        "PERIOD": "97.280",
        "APOAPSIS": "634.826",
        "PERIAPSIS": "622.189",
        "OBJECT_TYPE": "PAYLOAD",
        "RCS_SIZE": "LARGE",
        "COUNTRY_CODE": "PRC",
        "LAUNCH_DATE": "2022-06-27",
        "SITE": "JSC",
        "DECAY_DATE": null,
        "FILE": "4427567",
        "GP_ID": "264741480",
        "TLE_LINE0": "0 GAOFEN 12 (03)",
        "TLE_LINE1": "1 52912U 22069A   24223.87533909  .00005105  00000-0  67683-3 0  9999",
        "TLE_LINE2": "2 52912  97.9034 114.1658 0009018 358.9023   1.2168 14.80259501114703"
    },
    {
        "CCSDS_OMM_VERS": "3.0",
        "COMMENT": "GENERATED VIA SPACE-TRACK.ORG API",
        "CREATION_DATE": "2024-08-10T22:36:16",
        "ORIGINATOR": "18 SPCS",
        "OBJECT_NAME": "COSMOS 1550",
        "OBJECT_ID": "1984-043A",
        "CENTER_NAME": "EARTH",
        "REF_FRAME": "TEME",
        "TIME_SYSTEM": "UTC",
        "MEAN_ELEMENT_THEORY": "SGP4",
        "EPOCH": "2024-08-10T21:00:26.841024",
        "MEAN_MOTION": "13.72928309",
        "ECCENTRICITY": "0.00270280",
        "INCLINATION": "82.9760",
        "RA_OF_ASC_NODE": "356.5673",
        "ARG_OF_PERICENTER": "98.1863",
        "MEAN_ANOMALY": "14.0972",
        "EPHEMERIS_TYPE": "0",
        "CLASSIFICATION_TYPE": "U",
        "NORAD_CAT_ID": "14965",
        "ELEMENT_SET_NO": "999",
        "REV_AT_EPOCH": "1739",
        "BSTAR": "0.00015966000000",
        "MEAN_MOTION_DOT": "0.00000163",
        "MEAN_MOTION_DDOT": "0.0000000000000",
        "SEMIMAJOR_AXIS": "7367.214",
        "PERIOD": "104.885",
        "APOAPSIS": "1008.991",
        "PERIAPSIS": "969.167",
        "OBJECT_TYPE": "PAYLOAD",
        "RCS_SIZE": "LARGE",
        "COUNTRY_CODE": "CIS",
        "LAUNCH_DATE": "1984-05-11",
        "SITE": "PKMTR",
        "DECAY_DATE": null,
        "FILE": "4427363",
        "GP_ID": "264733839",
        "TLE_LINE0": "0 COSMOS 1550",
        "TLE_LINE1": "1 14965U 84043A   24223.87531066  .00000163  00000-0  15966-3 0  9993",
        "TLE_LINE2": "2 14965  82.9760 356.5673 0027028  98.1863  14.0972 13.72928309 17395"
    },
    {
        "CCSDS_OMM_VERS": "3.0",
        "COMMENT": "GENERATED VIA SPACE-TRACK.ORG API",
        "CREATION_DATE": "2024-08-10T22:26:16",
        "ORIGINATOR": "18 SPCS",
        "OBJECT_NAME": "COSMOS 2538",
        "OBJECT_ID": "2019-039D",
        "CENTER_NAME": "EARTH",
        "REF_FRAME": "TEME",
        "TIME_SYSTEM": "UTC",
        "MEAN_ELEMENT_THEORY": "SGP4",
        "EPOCH": "2024-08-10T21:00:24.397632",
        "MEAN_MOTION": "15.08445759",
        "ECCENTRICITY": "0.00538650",
        "INCLINATION": "97.6655",
        "RA_OF_ASC_NODE": "290.0514",
        "ARG_OF_PERICENTER": "215.3525",
        "MEAN_ANOMALY": "144.4128",
        "EPHEMERIS_TYPE": "0",
        "CLASSIFICATION_TYPE": "U",
        "NORAD_CAT_ID": "44424",
        "ELEMENT_SET_NO": "999",
        "REV_AT_EPOCH": "27763",
        "BSTAR": "0.00085764000000",
        "MEAN_MOTION_DOT": "0.00013761",
        "MEAN_MOTION_DDOT": "0.0000000000000",
        "SEMIMAJOR_AXIS": "6919.086",
        "PERIOD": "95.462",
        "APOAPSIS": "578.220",
        "PERIAPSIS": "503.681",
        "OBJECT_TYPE": "PAYLOAD",
        "RCS_SIZE": "MEDIUM",
        "COUNTRY_CODE": "CIS",
        "LAUNCH_DATE": "2019-07-10",
        "SITE": "PKMTR",
        "DECAY_DATE": null,
        "FILE": "4427201",
        "GP_ID": "264730062",
        "TLE_LINE0": "0 COSMOS 2538",
        "TLE_LINE1": "1 44424U 19039D   24223.87528238  .00013761  00000-0  85764-3 0  9997",
        "TLE_LINE2": "2 44424  97.6655 290.0514 0053865 215.3525 144.4128 15.08445759277636"
    }
]